{
  "type": "FeatureCollection",
  "features": [
    {
      "type": "Feature",
      "properties": {
        "norad_id": 32320,
        "name": "FENGYUN 1C DEB",
        "group": "fengyun-1c-debris",
        "lat": 16.907749748843223,
        "lon": -141.85202045776893,
        "alt_km": 731.8356628567171,
        "timestamp": "2025-12-27T07:26:25.508021+00:00",
        "meta_object_name": "FENGYUN 1C DEB",
        "meta_object_id": "1999-025CXM",
        "meta_epoch": "2025-12-22T13:40:01.485696",
        "meta_mean_motion": 14.36184874,
        "meta_eccentricity": 0.00563271,
        "meta_inclination": 100.3743,
        "meta_ra_of_asc_node": 215.6434,
        "meta_arg_of_pericenter": 20.562,
        "meta_mean_anomaly": 339.7809,
        "meta_ephemeris_type": 0,
        "meta_classification_type": "U",
        "meta_norad_cat_id": 32320,
        "meta_element_set_no": 999,
        "meta_rev_at_epoch": 62314,
        "meta_bstar": 0.00080066541,
        "meta_mean_motion_dot": 2.318e-05,
        "meta_mean_motion_ddot": 0,
        "tle_line1": "1 32320U 99025CXM 25356.56946164  .00002318  00000+0  80067-3 0  9994",
        "tle_line2": "2 32320 100.3743 215.6434 0056327  20.5620 339.7809 14.36184874623144"
      },
      "geometry": {
        "type": "Point",
        "coordinates": [
          -141.85202045776893,
          16.907749748843223
        ]
      }
    },
    {
      "type": "Feature",
      "properties": {
        "norad_id": 32322,
        "name": "FENGYUN 1C DEB",
        "group": "fengyun-1c-debris",
        "lat": 16.153214955435224,
        "lon": 63.25074979915516,
        "alt_km": 1187.9588400548355,
        "timestamp": "2025-12-27T07:26:25.508031+00:00",
        "meta_object_name": "FENGYUN 1C DEB",
        "meta_object_id": "1999-025CXP",
        "meta_epoch": "2025-12-21T10:17:00.184704",
        "meta_mean_motion": 13.34155768,
        "meta_eccentricity": 0.04195743,
        "meta_inclination": 98.3703,
        "meta_ra_of_asc_node": 235.9789,
        "meta_arg_of_pericenter": 75.736,
        "meta_mean_anomaly": 288.998,
        "meta_ephemeris_type": 0,
        "meta_classification_type": "U",
        "meta_norad_cat_id": 32322,
        "meta_element_set_no": 999,
        "meta_rev_at_epoch": 60495,
        "meta_bstar": 0.0012702386,
        "meta_mean_motion_dot": 1.01e-05,
        "meta_mean_motion_ddot": 0,
        "tle_line1": "1 32322U 99025CXP 25355.42847436  .00001010  00000+0  12702-2 0  9990",
        "tle_line2": "2 32322  98.3703 235.9789 0419574  75.7360 288.9980 13.34155768604956"
      },
      "geometry": {
        "type": "Point",
        "coordinates": [
          63.25074979915516,
          16.153214955435224
        ]
      }
    },
    {
      "type": "Feature",
      "properties": {
        "norad_id": 32323,
        "name": "FENGYUN 1C DEB",
        "group": "fengyun-1c-debris",
        "lat": 29.181612058349977,
        "lon": 138.68820430804251,
        "alt_km": 990.2838577134344,
        "timestamp": "2025-12-27T07:26:25.508041+00:00",
        "meta_object_name": "FENGYUN 1C DEB",
        "meta_object_id": "1999-025CXQ",
        "meta_epoch": "2025-12-19T15:19:13.533312",
        "meta_mean_motion": 13.96612746,
        "meta_eccentricity": 0.015623,
        "meta_inclination": 98.5704,
        "meta_ra_of_asc_node": 136.3682,
        "meta_arg_of_pericenter": 190.9743,
        "meta_mean_anomaly": 168.7999,
        "meta_ephemeris_type": 0,
        "meta_classification_type": "U",
        "meta_norad_cat_id": 32323,
        "meta_element_set_no": 999,
        "meta_rev_at_epoch": 60366,
        "meta_bstar": 0.0022503,
        "meta_mean_motion_dot": 3.415e-05,
        "meta_mean_motion_ddot": 0,
        "tle_line1": "1 32323U 99025CXQ 25353.63835108  .00003415  00000+0  22503-2 0  9996",
        "tle_line2": "2 32323  98.5704 136.3682 0156230 190.9743 168.7999 13.96612746603662"
      },
      "geometry": {
        "type": "Point",
        "coordinates": [
          138.68820430804251,
          29.181612058349977
        ]
      }
    },
    {
      "type": "Feature",
      "properties": {
        "norad_id": 32324,
        "name": "FENGYUN 1C DEB",
        "group": "fengyun-1c-debris",
        "lat": 30.02020648150232,
        "lon": -70.52710603241331,
        "alt_km": 895.4171931415522,
        "timestamp": "2025-12-27T07:26:25.508051+00:00",
        "meta_object_name": "FENGYUN 1C DEB",
        "meta_object_id": "1999-025CXR",
        "meta_epoch": "2025-12-24T17:23:16.128672",
        "meta_mean_motion": 14.09166254,
        "meta_eccentricity": 0.00496208,
        "meta_inclination": 99.5324,
        "meta_ra_of_asc_node": 101.1678,
        "meta_arg_of_pericenter": 350.6597,
        "meta_mean_anomaly": 9.3643,
        "meta_ephemeris_type": 0,
        "meta_classification_type": "U",
        "meta_norad_cat_id": 32324,
        "meta_element_set_no": 999,
        "meta_rev_at_epoch": 64167,
        "meta_bstar": 0.00050694088,
        "meta_mean_motion_dot": 8.41e-06,
        "meta_mean_motion_ddot": 0,
        "tle_line1": "1 32324U 99025CXR 25358.72449223  .00000841  00000+0  50694-3 0  9994",
        "tle_line2": "2 32324  99.5324 101.1678 0049620 350.6597   9.3643 14.09166254641675"
      },
      "geometry": {
        "type": "Point",
        "coordinates": [
          -70.52710603241331,
          30.02020648150232
        ]
      }
    },
    {
      "type": "Feature",
      "properties": {
        "norad_id": 32326,
        "name": "FENGYUN 1C DEB",
        "group": "fengyun-1c-debris",
        "lat": 69.66700892024892,
        "lon": 132.76910343093732,
        "alt_km": 712.3337348059513,
        "timestamp": "2025-12-27T07:26:25.508062+00:00",
        "meta_object_name": "FENGYUN 1C DEB",
        "meta_object_id": "1999-025CXT",
        "meta_epoch": "2025-12-25T00:34:20.838720",
        "meta_mean_motion": 13.69298824,
        "meta_eccentricity": 0.0386861,
        "meta_inclination": 98.4894,
        "meta_ra_of_asc_node": 286.9798,
        "meta_arg_of_pericenter": 106.5572,
        "meta_mean_anomaly": 257.8432,
        "meta_ephemeris_type": 0,
        "meta_classification_type": "U",
        "meta_norad_cat_id": 32326,
        "meta_element_set_no": 999,
        "meta_rev_at_epoch": 63350,
        "meta_bstar": 0.00054460155,
        "meta_mean_motion_dot": 7.67e-06,
        "meta_mean_motion_ddot": 0,
        "tle_line1": "1 32326U 99025CXT 25359.02385230  .00000767  00000+0  54460-3 0  9999",
        "tle_line2": "2 32326  98.4894 286.9798 0386861 106.5572 257.8432 13.69298824633507"
      },
      "geometry": {
        "type": "Point",
        "coordinates": [
          132.76910343093732,
          69.66700892024892
        ]
      }
    },
    {
      "type": "Feature",
      "properties": {
        "norad_id": 32332,
        "name": "FENGYUN 1C DEB",
        "group": "fengyun-1c-debris",
        "lat": -38.70845362844316,
        "lon": -132.11885582617387,
        "alt_km": 782.3659821777719,
        "timestamp": "2025-12-27T07:26:25.508072+00:00",
        "meta_object_name": "FENGYUN 1C DEB",
        "meta_object_id": "1999-025CXZ",
        "meta_epoch": "2025-12-26T21:46:23.979072",
        "meta_mean_motion": 13.9721104,
        "meta_eccentricity": 0.02854259,
        "meta_inclination": 99.131,
        "meta_ra_of_asc_node": 54.8858,
        "meta_arg_of_pericenter": 273.7906,
        "meta_mean_anomaly": 83.0668,
        "meta_ephemeris_type": 0,
        "meta_classification_type": "U",
        "meta_norad_cat_id": 32332,
        "meta_element_set_no": 999,
        "meta_rev_at_epoch": 93234,
        "meta_bstar": 0.001752972,
        "meta_mean_motion_dot": 3.419e-05,
        "meta_mean_motion_ddot": 0,
        "tle_line1": "1 32332U 99025CXZ 25360.90722198  .00003419  00000+0  17530-2 0  9996",
        "tle_line2": "2 32332  99.1310  54.8858 0285425 273.7906  83.0668 13.97211040932346"
      },
      "geometry": {
        "type": "Point",
        "coordinates": [
          -132.11885582617387,
          -38.70845362844316
        ]
      }
    },
    {
      "type": "Feature",
      "properties": {
        "norad_id": 32334,
        "name": "FENGYUN 1C DEB",
        "group": "fengyun-1c-debris",
        "lat": -68.45502318819194,
        "lon": 80.300127564479,
        "alt_km": 863.0500249120714,
        "timestamp": "2025-12-27T07:26:25.508082+00:00",
        "meta_object_name": "FENGYUN 1C DEB",
        "meta_object_id": "1999-025CYB",
        "meta_epoch": "2025-12-26T21:29:47.176224",
        "meta_mean_motion": 14.01655329,
        "meta_eccentricity": 0.006734,
        "meta_inclination": 99.2501,
        "meta_ra_of_asc_node": 55.502,
        "meta_arg_of_pericenter": 241.6261,
        "meta_mean_anomaly": 117.8103,
        "meta_ephemeris_type": 0,
        "meta_classification_type": "U",
        "meta_norad_cat_id": 32334,
        "meta_element_set_no": 999,
        "meta_rev_at_epoch": 94138,
        "meta_bstar": 0.00035380469,
        "meta_mean_motion_dot": 5e-06,
        "meta_mean_motion_ddot": 0,
        "tle_line1": "1 32334U 99025CYB 25360.89568491  .00000500  00000+0  35380-3 0  9992",
        "tle_line2": "2 32334  99.2501  55.5020 0067340 241.6261 117.8103 14.01655329941384"
      },
      "geometry": {
        "type": "Point",
        "coordinates": [
          80.300127564479,
          -68.45502318819194
        ]
      }
    }
  ]
}